STARLINK-30274          
1 57672U 23124K   26068.67065008  .00000474  00000+0  28125-4 0  9999
2 57672  53.1597 207.0386 0000957  90.1599 269.9511 15.30190934143566
LYNK TOWER 5            
1 59121U 24043Z   26068.92489786  .00009048  00000+0  31902-3 0  9994
2 59121  97.5458 204.7305 0010406 234.6422 125.3846 15.29454506111860
